[
    {
        "Altitude(m)": 713669.0000100057,
        "Argument of Periapsis(deg)": 0.004556048474650827,
        "Eccentricity": 0.0,
        "Inclination(deg)": 45.0,
        "Latitude(deg)": -34.922625093229655,
        "Longitude(deg)": -61.3078906860655,
        "Mean Anomaly(deg)": -126.29581334100769,
        "RAAN(deg)": 174.99569922341672,
        "Satellite Name": "Constellation 1 784",
        "Satellite Number": 784,
        "Semi-Major Axis(m)": 7083131.272910544,
        "Time(s)": 76
    },
    {
        "Altitude(m)": 713681.5411123257,
        "Argument of Periapsis(deg)": 0.004615996480896233,
        "Eccentricity": 0.0,
        "Inclination(deg)": 45.0,
        "Latitude(deg)": -34.953539368154416,
        "Longitude(deg)": -61.2485020262133,
        "Mean Anomaly(deg)": -126.23511220075771,
        "RAAN(deg)": 174.99564263425117,
        "Satellite Name": "Constellation 1 784",
        "Satellite Number": 784,
        "Semi-Major Axis(m)": 7083131.272910544,
        "Time(s)": 77
    },
    {
        "Altitude(m)": 713694.0711368464,
        "Argument of Periapsis(deg)": 0.004675944487141638,
        "Eccentricity": 0.0,
        "Inclination(deg)": 45.0,
        "Latitude(deg)": -34.98442021921207,
        "Longitude(deg)": -61.18906584503027,
        "Mean Anomaly(deg)": -126.17441106050788,
        "RAAN(deg)": 174.9955860450856,
        "Satellite Name": "Constellation 1 784",
        "Satellite Number": 784,
        "Semi-Major Axis(m)": 7083131.272910544,
        "Time(s)": 78
    },
    {
        "Altitude(m)": 713706.5900385887,
        "Argument of Periapsis(deg)": 0.004735892493387044,
        "Eccentricity": 0.0,
        "Inclination(deg)": 45.0,
        "Latitude(deg)": -35.01526758411641,
        "Longitude(deg)": -61.1295821035742,
        "Mean Anomaly(deg)": -126.11370992025795,
        "RAAN(deg)": 174.99552945592,
        "Satellite Name": "Constellation 1 784",
        "Satellite Number": 784,
        "Semi-Major Axis(m)": 7083131.272910544,
        "Time(s)": 79
    },
    {
        "Altitude(m)": 713719.0977726028,
        "Argument of Periapsis(deg)": 0.004795840499632449,
        "Eccentricity": 0.0,
        "Inclination(deg)": 45.0,
        "Latitude(deg)": -35.046081400518204,
        "Longitude(deg)": -61.070050763102074,
        "Mean Anomaly(deg)": -126.05300878000806,
        "RAAN(deg)": 174.99547286675443,
        "Satellite Name": "Constellation 1 784",
        "Satellite Number": 784,
        "Semi-Major Axis(m)": 7083131.272910544,
        "Time(s)": 80
    },
    {
        "Altitude(m)": 713731.5942939866,
        "Argument of Periapsis(deg)": 0.004855788505877855,
        "Eccentricity": 0.0,
        "Inclination(deg)": 45.0,
        "Latitude(deg)": -35.07686160600556,
        "Longitude(deg)": -61.01047178507059,
        "Mean Anomaly(deg)": -125.99230763975811,
        "RAAN(deg)": 174.99541627758887,
        "Satellite Name": "Constellation 1 784",
        "Satellite Number": 784,
        "Semi-Major Axis(m)": 7083131.272910544,
        "Time(s)": 81
    },
    {
        "Altitude(m)": 713744.0795578618,
        "Argument of Periapsis(deg)": 0.00491573651212326,
        "Eccentricity": 0.0,
        "Inclination(deg)": 45.0,
        "Latitude(deg)": -35.10760813810388,
        "Longitude(deg)": -60.950845299235475,
        "Mean Anomaly(deg)": -125.93160649950823,
        "RAAN(deg)": 174.9953596884233,
        "Satellite Name": "Constellation 1 784",
        "Satellite Number": 784,
        "Semi-Major Axis(m)": 7083131.272910544,
        "Time(s)": 82
    },
    {
        "Altitude(m)": 713756.553519394,
        "Argument of Periapsis(deg)": 0.004975684518368666,
        "Eccentricity": 0.0,
        "Inclination(deg)": 45.0,
        "Latitude(deg)": -35.138320934276116,
        "Longitude(deg)": -60.89117093126261,
        "Mean Anomaly(deg)": -125.87090535925839,
        "RAAN(deg)": 174.99530309925774,
        "Satellite Name": "Constellation 1 784",
        "Satellite Number": 784,
        "Semi-Major Axis(m)": 7083131.272910544,
        "Time(s)": 83
    },
    {
        "Altitude(m)": 713769.0161337716,
        "Argument of Periapsis(deg)": 0.005035632524614072,
        "Eccentricity": 0.0,
        "Inclination(deg)": 45.0,
        "Latitude(deg)": -35.16899993192319,
        "Longitude(deg)": -60.83144881131368,
        "Mean Anomaly(deg)": -125.81020421900845,
        "RAAN(deg)": 174.99524651009216,
        "Satellite Name": "Constellation 1 784",
        "Satellite Number": 784,
        "Semi-Major Axis(m)": 7083131.272910544,
        "Time(s)": 84
    },
    {
        "Altitude(m)": 713781.4673562368,
        "Argument of Periapsis(deg)": 0.0050955805308594785,
        "Eccentricity": 0.0,
        "Inclination(deg)": 45.0,
        "Latitude(deg)": -35.19964506838397,
        "Longitude(deg)": -60.77167890165782,
        "Mean Anomaly(deg)": -125.74950307875855,
        "RAAN(deg)": 174.99518992092658,
        "Satellite Name": "Constellation 1 784",
        "Satellite Number": 784,
        "Semi-Major Axis(m)": 7083131.272910544,
        "Time(s)": 85
    },
    {
        "Altitude(m)": 713793.9071420488,
        "Argument of Periapsis(deg)": 0.005155528537104883,
        "Eccentricity": 0.0,
        "Inclination(deg)": 45.0,
        "Latitude(deg)": -35.23025628093533,
        "Longitude(deg)": -60.71186116477048,
        "Mean Anomaly(deg)": -125.68880193850865,
        "RAAN(deg)": 174.99513333176102,
        "Satellite Name": "Constellation 1 784",
        "Satellite Number": 784,
        "Semi-Major Axis(m)": 7083131.272910544,
        "Time(s)": 86
    },
    {
        "Altitude(m)": 713806.3354465136,
        "Argument of Periapsis(deg)": 0.0052154765433502885,
        "Eccentricity": 0.0,
        "Inclination(deg)": 45.0,
        "Latitude(deg)": -35.26083350679263,
        "Longitude(deg)": -60.65199556333425,
        "Mean Anomaly(deg)": -125.62810079825873,
        "RAAN(deg)": 174.99507674259544,
        "Satellite Name": "Constellation 1 784",
        "Satellite Number": 784,
        "Semi-Major Axis(m)": 7083131.272910544,
        "Time(s)": 87
    },
    {
        "Altitude(m)": 713818.752224968,
        "Argument of Periapsis(deg)": 0.005275424549595694,
        "Eccentricity": 0.0,
        "Inclination(deg)": 45.0,
        "Latitude(deg)": -35.2913766831096,
        "Longitude(deg)": -60.592082060240685,
        "Mean Anomaly(deg)": -125.56739965800888,
        "RAAN(deg)": 174.9950201534299,
        "Satellite Name": "Constellation 1 784",
        "Satellite Number": 784,
        "Semi-Major Axis(m)": 7083131.272910544,
        "Time(s)": 88
    },
    {
        "Altitude(m)": 713831.1574327886,
        "Argument of Periapsis(deg)": 0.0053353725558411,
        "Eccentricity": 0.0,
        "Inclination(deg)": 45.0,
        "Latitude(deg)": -35.32188574697897,
        "Longitude(deg)": -60.53212078668795,
        "Mean Anomaly(deg)": -125.50669851775893,
        "RAAN(deg)": 174.99496356426434,
        "Satellite Name": "Constellation 1 784",
        "Satellite Number": 784,
        "Semi-Major Axis(m)": 7083131.272910544,
        "Time(s)": 89
    },
    {
        "Altitude(m)": 713843.5510253926,
        "Argument of Periapsis(deg)": 0.005395320562086505,
        "Eccentricity": 0.0,
        "Inclination(deg)": 45.0,
        "Latitude(deg)": -35.352360635431836,
        "Longitude(deg)": -60.472111369793886,
        "Mean Anomaly(deg)": -125.44599737750906,
        "RAAN(deg)": 174.99490697509873,
        "Satellite Name": "Constellation 1 784",
        "Satellite Number": 784,
        "Semi-Major Axis(m)": 7083131.272910544,
        "Time(s)": 90
    },
    {
        "Altitude(m)": 713855.9329582212,
        "Argument of Periapsis(deg)": 0.00545526856833191,
        "Eccentricity": 0.0,
        "Inclination(deg)": 45.0,
        "Latitude(deg)": -35.38280128543896,
        "Longitude(deg)": -60.41205394117998,
        "Mean Anomaly(deg)": -125.38529623725917,
        "RAAN(deg)": 174.99485038593318,
        "Satellite Name": "Constellation 1 784",
        "Satellite Number": 784,
        "Semi-Major Axis(m)": 7083131.272910544,
        "Time(s)": 91
    },
    {
        "Altitude(m)": 713868.3031867599,
        "Argument of Periapsis(deg)": 0.005515216574577317,
        "Eccentricity": 0.0,
        "Inclination(deg)": 45.0,
        "Latitude(deg)": -35.4132076339101,
        "Longitude(deg)": -60.35194846458446,
        "Mean Anomaly(deg)": -125.32459509700934,
        "RAAN(deg)": 174.9947937967676,
        "Satellite Name": "Constellation 1 784",
        "Satellite Number": 784,
        "Semi-Major Axis(m)": 7083131.272910544,
        "Time(s)": 92
    },
    {
        "Altitude(m)": 713880.6616665372,
        "Argument of Periapsis(deg)": 0.005575164580822722,
        "Eccentricity": 0.0,
        "Inclination(deg)": 45.0,
        "Latitude(deg)": -35.443579617694596,
        "Longitude(deg)": -60.29179490395995,
        "Mean Anomaly(deg)": -125.2638939567594,
        "RAAN(deg)": 174.99473720760204,
        "Satellite Name": "Constellation 1 784",
        "Satellite Number": 784,
        "Semi-Major Axis(m)": 7083131.272910544,
        "Time(s)": 93
    },
    {
        "Altitude(m)": 713893.0083531062,
        "Argument of Periapsis(deg)": 0.005635112587068129,
        "Eccentricity": 0.0,
        "Inclination(deg)": 45.0,
        "Latitude(deg)": -35.473917173581505,
        "Longitude(deg)": -60.23159322347536,
        "Mean Anomaly(deg)": -125.20319281650943,
        "RAAN(deg)": 174.9946806184365,
        "Satellite Name": "Constellation 1 784",
        "Satellite Number": 784,
        "Semi-Major Axis(m)": 7083131.272910544,
        "Time(s)": 94
    }
]